[{"OBJECT_NAME":"HXMT (HUIYAN)","OBJECT_ID":"2017-034A","EPOCH":"2026-03-24T23:33:38.221632","MEAN_MOTION":15.1765611,"ECCENTRICITY":0.0032417,"INCLINATION":43.0146,"RA_OF_ASC_NODE":291.644,"ARG_OF_PERICENTER":329.1775,"MEAN_ANOMALY":30.717,"EPHEMERIS_TYPE":0,"CLASSIFICATION_TYPE":"U","NORAD_CAT_ID":42758,"ELEMENT_SET_NO":999,"REV_AT_EPOCH":48486,"BSTAR":0.00024401225,"MEAN_MOTION_DOT":4.828e-5,"MEAN_MOTION_DDOT":0},{"OBJECT_NAME":"SAOCOM 1A","OBJECT_ID":"2018-076A","EPOCH":"2026-03-24T22:48:33.962112","MEAN_MOTION":14.8215894,"ECCENTRICITY":0.00014993,"INCLINATION":97.8902,"RA_OF_ASC_NODE":271.9076,"ARG_OF_PERICENTER":86.7014,"MEAN_ANOMALY":273.437,"EPHEMERIS_TYPE":0,"CLASSIFICATION_TYPE":"U","NORAD_CAT_ID":43641,"ELEMENT_SET_NO":999,"REV_AT_EPOCH":40362,"BSTAR":0.00015590542,"MEAN_MOTION_DOT":1.189e-5,"MEAN_MOTION_DDOT":0},{"OBJECT_NAME":"H-2A R/B","OBJECT_ID":"2018-084L","EPOCH":"2026-03-24T12:45:03.203712","MEAN_MOTION":15.41967201,"ECCENTRICITY":0.0024152,"INCLINATION":98.8707,"RA_OF_ASC_NODE":304.0975,"ARG_OF_PERICENTER":333.942,"MEAN_ANOMALY":26.0604,"EPHEMERIS_TYPE":0,"CLASSIFICATION_TYPE":"U","NORAD_CAT_ID":43682,"ELEMENT_SET_NO":999,"REV_AT_EPOCH":40806,"BSTAR":0.00043525608,"MEAN_MOTION_DOT":0.00018635,"MEAN_MOTION_DDOT":0},{"OBJECT_NAME":"SAOCOM 1B","OBJECT_ID":"2020-059A","EPOCH":"2026-03-24T23:33:31.970592","MEAN_MOTION":14.82151387,"ECCENTRICITY":0.00014836,"INCLINATION":97.8901,"RA_OF_ASC_NODE":271.0362,"ARG_OF_PERICENTER":85.0226,"MEAN_ANOMALY":275.1157,"EPHEMERIS_TYPE":0,"CLASSIFICATION_TYPE":"U","NORAD_CAT_ID":46265,"ELEMENT_SET_NO":999,"REV_AT_EPOCH":30101,"BSTAR":2.9868262e-5,"MEAN_MOTION_DOT":1.86e-6,"MEAN_MOTION_DDOT":0},{"OBJECT_NAME":"CSS (TIANHE)","OBJECT_ID":"2021-035A","EPOCH":"2026-03-24T21:03:54.845568","MEAN_MOTION":15.61442402,"ECCENTRICITY":0.00045652,"INCLINATION":41.4665,"RA_OF_ASC_NODE":115.6921,"ARG_OF_PERICENTER":13.6781,"MEAN_ANOMALY":346.4181,"EPHEMERIS_TYPE":0,"CLASSIFICATION_TYPE":"U","NORAD_CAT_ID":48274,"ELEMENT_SET_NO":999,"REV_AT_EPOCH":27998,"BSTAR":0.00022458379,"MEAN_MOTION_DOT":0.00019459,"MEAN_MOTION_DDOT":0},{"OBJECT_NAME":"COSMOS 2550","OBJECT_ID":"2021-056A","EPOCH":"2026-03-24T23:18:59.493024","MEAN_MOTION":15.33830017,"ECCENTRICITY":0.00082774,"INCLINATION":67.1433,"RA_OF_ASC_NODE":354.6562,"ARG_OF_PERICENTER":268.9381,"MEAN_ANOMALY":91.0825,"EPHEMERIS_TYPE":0,"CLASSIFICATION_TYPE":"U","NORAD_CAT_ID":48865,"ELEMENT_SET_NO":999,"REV_AT_EPOCH":26580,"BSTAR":2.50421e-7,"MEAN_MOTION_DOT":-1.83e-6,"MEAN_MOTION_DDOT":0},{"OBJECT_NAME":"CZ-2C R/B","OBJECT_ID":"2022-058K","EPOCH":"2026-03-24T19:24:16.304256","MEAN_MOTION":15.55306702,"ECCENTRICITY":0.00415793,"INCLINATION":50.1875,"RA_OF_ASC_NODE":240.4525,"ARG_OF_PERICENTER":265.4433,"MEAN_ANOMALY":94.1787,"EPHEMERIS_TYPE":0,"CLASSIFICATION_TYPE":"U","NORAD_CAT_ID":52794,"ELEMENT_SET_NO":999,"REV_AT_EPOCH":21248,"BSTAR":0.00042968701,"MEAN_MOTION_DOT":0.00030513,"MEAN_MOTION_DDOT":0},{"OBJECT_NAME":"CZ-2C R/B","OBJECT_ID":"2022-132E","EPOCH":"2026-03-24T22:24:22.822272","MEAN_MOTION":15.63266049,"ECCENTRICITY":0.00184571,"INCLINATION":97.2968,"RA_OF_ASC_NODE":87.7292,"ARG_OF_PERICENTER":42.3962,"MEAN_ANOMALY":317.8719,"EPHEMERIS_TYPE":0,"CLASSIFICATION_TYPE":"U","NORAD_CAT_ID":54039,"ELEMENT_SET_NO":999,"REV_AT_EPOCH":19275,"BSTAR":0.00046624354,"MEAN_MOTION_DOT":0.00043104,"MEAN_MOTION_DDOT":0},{"OBJECT_NAME":"GSLV R/B","OBJECT_ID":"2022-138AN","EPOCH":"2026-03-24T23:07:15.002112","MEAN_MOTION":14.96873451,"ECCENTRICITY":0.00241161,"INCLINATION":87.3865,"RA_OF_ASC_NODE":161.2498,"ARG_OF_PERICENTER":96.1806,"MEAN_ANOMALY":264.2174,"EPHEMERIS_TYPE":0,"CLASSIFICATION_TYPE":"U","NORAD_CAT_ID":54149,"ELEMENT_SET_NO":999,"REV_AT_EPOCH":18621,"BSTAR":0.00024685011,"MEAN_MOTION_DOT":2.875e-5,"MEAN_MOTION_DDOT":0},{"OBJECT_NAME":"XRISM","OBJECT_ID":"2023-137A","EPOCH":"2026-03-24T23:02:53.662848","MEAN_MOTION":15.11669679,"ECCENTRICITY":0.00079244,"INCLINATION":31.0011,"RA_OF_ASC_NODE":184.8781,"ARG_OF_PERICENTER":193.1657,"MEAN_ANOMALY":166.8776,"EPHEMERIS_TYPE":0,"CLASSIFICATION_TYPE":"U","NORAD_CAT_ID":57800,"ELEMENT_SET_NO":999,"REV_AT_EPOCH":14010,"BSTAR":0.00028440735,"MEAN_MOTION_DOT":5.059e-5,"MEAN_MOTION_DDOT":0},{"OBJECT_NAME":"ACS3","OBJECT_ID":"2024-077B","EPOCH":"2026-03-24T19:56:39.970752","MEAN_MOTION":13.90310692,"ECCENTRICITY":0.00708541,"INCLINATION":97.1993,"RA_OF_ASC_NODE":21.54,"ARG_OF_PERICENTER":41.4211,"MEAN_ANOMALY":319.2295,"EPHEMERIS_TYPE":0,"CLASSIFICATION_TYPE":"U","NORAD_CAT_ID":59588,"ELEMENT_SET_NO":999,"REV_AT_EPOCH":9630,"BSTAR":0.023302534,"MEAN_MOTION_DOT":0.00029553,"MEAN_MOTION_DDOT":0},{"OBJECT_NAME":"SZ-21 MODULE","OBJECT_ID":"2025-246C","EPOCH":"2026-03-24T18:36:44.315424","MEAN_MOTION":15.69693358,"ECCENTRICITY":9.131e-5,"INCLINATION":41.4739,"RA_OF_ASC_NODE":110.4127,"ARG_OF_PERICENTER":210.8046,"MEAN_ANOMALY":149.2742,"EPHEMERIS_TYPE":0,"CLASSIFICATION_TYPE":"U","NORAD_CAT_ID":66515,"ELEMENT_SET_NO":999,"REV_AT_EPOCH":2044,"BSTAR":0.00028129901,"MEAN_MOTION_DOT":0.00034209,"MEAN_MOTION_DDOT":0}]
