HXMT (HUIYAN)           
1 42758U 17034A   26083.98169238  .00004828  00000+0  24401-3 0  9991
2 42758  43.0146 291.6440 0032417 329.1775  30.7170 15.17656110484864
SAOCOM 1A               
1 43641U 18076A   26083.95039308  .00001189  00000+0  15591-3 0  9998
2 43641  97.8902 271.9076 0001499  86.7014 273.4370 14.82158940403629
H-2A R/B                
1 43682U 18084L   26083.53128708  .00018635  00000+0  43526-3 0  9992
2 43682  98.8707 304.0975 0024152 333.9420  26.0604 15.41967201408062
SAOCOM 1B               
1 46265U 20059A   26083.98162003  .00000186  00000+0  29868-4 0  9998
2 46265  97.8901 271.0362 0001483  85.0226 275.1157 14.82151387301012
CSS (TIANHE)            
1 48274U 21035A   26083.87771812  .00019459  00000+0  22458-3 0  9997
2 48274  41.4665 115.6921 0004565  13.6781 346.4181 15.61442402279985
COSMOS 2550             
1 48865U 21056A   26083.97152191 -.00000183  00000+0  25042-6 0  9990
2 48865  67.1433 354.6562 0008277 268.9381  91.0825 15.33830017265806
CZ-2C R/B               
1 52794U 22058K   26083.80852204  .00030513  00000+0  42969-3 0  9996
2 52794  50.1875 240.4525 0041579 265.4433  94.1787 15.55306702212487
CZ-2C R/B               
1 54039U 22132E   26083.93359748  .00043104  00000+0  46624-3 0  9994
2 54039  97.2968  87.7292 0018457  42.3962 317.8719 15.63266049192752
GSLV R/B                
1 54149U 22138AN  26083.96336808  .00002875  00000+0  24685-3 0  9990
2 54149  87.3865 161.2498 0024116  96.1806 264.2174 14.96873451186219
XRISM                   
1 57800U 23137A   26083.96034332  .00005059  00000+0  28441-3 0  9995
2 57800  31.0011 184.8781 0007924 193.1657 166.8776 15.11669679140107
ACS3                    
1 59588U 24077B   26083.83101818  .00029553  00000+0  23303-1 0  9999
2 59588  97.1993  21.5400 0070854  41.4211 319.2295 13.90310692 96307
SZ-21 MODULE            
1 66515U 25246C   26083.77551291  .00034209  00000+0  28130-3 0  9992
2 66515  41.4739 110.4127 0000913 210.8046 149.2742 15.69693358 20447
